H1 CPF  1  DLR 2022 03 20 10  5792 technosat            
H2  1704205 6203    42829 2022 03 20 00 00 00 2022 03 27 00 00 00    60 1 1  0 0 0
H9
10 0 59663  36000.000000  0      -1993694.000       2077132.576      -6349844.846
10 0 59663  36060.000000  0      -1607360.135       1895403.164      -6513754.154
10 0 59663  36120.000000  0      -1215923.521       1702320.448      -6650141.279
10 0 59663  36180.000000  0       -821122.536       1498658.150      -6758433.159
10 0 59663  36240.000000  0       -424702.090       1285249.120      -6838174.384
10 0 59663  36300.000000  0        -28406.093       1062981.973      -6889028.890
10 0 59663  36360.000000  0        366030.036        832797.478      -6910781.395
10 0 59663  36420.000000  0        756886.942        595684.620      -6903338.395
10 0 59663  36480.000000  0       1142468.848        352676.374      -6866728.548
10 0 59663  36540.000000  0       1521110.831        104845.251      -6801102.525
10 0 59663  36600.000000  0       1891185.911       -146701.365      -6706732.425
10 0 59663  36660.000000  0       2251111.932       -400826.044      -6584010.819
10 0 59663  36720.000000  0       2599358.382       -656366.395      -6433449.369
10 0 59663  36780.000000  0       2934452.960       -912140.332      -6255676.801
10 0 59663  36840.000000  0       3254987.766      -1166951.415      -6051436.454
10 0 59663  36900.000000  0       3559625.262      -1419594.331      -5821583.517
10 0 59663  36960.000000  0       3847104.062      -1668860.591      -5567081.796
10 0 59663  37020.000000  0       4116244.353      -1913544.332      -5288999.885
10 0 59663  37080.000000  0       4365952.927      -2152448.163      -4988506.912
10 0 59663  37140.000000  0       4595227.834      -2384389.036      -4666867.837
10 0 59663  37200.000000  0       4803162.619      -2608204.122      -4325438.326
10 0 59663  37260.000000  0       4988950.152      -2822756.662      -3965659.226
10 0 59663  37320.000000  0       5151886.041      -3026941.777      -3589050.624
10 0 59663  37380.000000  0       5291371.573      -3219692.181      -3197205.503
10 0 59663  37440.000000  0       5406916.189      -3399983.800      -2791783.019
10 0 59663  37500.000000  0       5498139.389      -3566841.213      -2374501.394
10 0 59663  37560.000000  0       5564772.088      -3719342.887      -1947130.583
10 0 59663  37620.000000  0       5606657.518      -3856626.245      -1511484.684
10 0 59663  37680.000000  0       5623751.537      -3977892.483      -1069414.017
10 0 59663  37740.000000  0       5616122.358      -4082411.056       -622797.059
10 0 59663  37800.000000  0       5583949.795      -4169523.879       -173532.262
10 0 59663  37860.000000  0       5527523.940      -4238649.224        276470.333
10 0 59663  37920.000000  0       5447243.193      -4289285.211        725297.521
10 0 59663  37980.000000  0       5343611.823      -4321012.919       1171041.339
10 0 59663  38040.000000  0       5217236.993      -4333499.062       1611807.507
10 0 59663  38100.000000  0       5068825.285      -4326498.189       2045723.742
10 0 59663  38160.000000  0       4899178.741      -4299854.461       2470947.906
10 0 59663  38220.000000  0       4709190.493      -4253503.014       2885675.998
10 0 59663  38280.000000  0       4499839.985      -4187470.860       3288149.950
10 0 59663  38340.000000  0       4272187.829      -4101877.352       3676665.184
10 0 59663  38400.000000  0       4027370.284      -3996934.223       4049577.919
10 0 59663  38460.000000  0       3766593.362      -3872945.140       4405312.173
10 0 59663  38520.000000  0       3491126.664      -3730304.742       4742366.369
10 0 59663  38580.000000  0       3202297.020      -3569497.262       5059319.516
10 0 59663  38640.000000  0       2901482.008      -3391094.796       5354837.050
10 0 59663  38700.000000  0       2590103.232      -3195755.117       5627676.346
10 0 59663  38760.000000  0       2269619.441      -2984219.049       5876691.717
10 0 59663  38820.000000  0       1941519.571      -2757307.508       6100838.932
10 0 59663  38880.000000  0       1607315.775      -2515918.180       6299179.306
10 0 59663  38940.000000  0       1268536.438      -2261021.868       6470883.366
10 0 59663  39000.000000  0        926719.158      -1993658.490       6615234.064
10 0 59663  39060.000000  0        583403.785      -1714932.756       6731629.486
10 0 59663  39120.000000  0        240125.563      -1426009.594       6819585.119
10 0 59663  39180.000000  0       -101591.662      -1128109.225       6878735.695
10 0 59663  39240.000000  0       -440242.111       -822502.006       6908836.477
10 0 59663  39300.000000  0       -774344.576       -510503.089       6909764.162
10 0 59663  39360.000000  0      -1102448.824       -193466.806       6881517.330
10 0 59663  39420.000000  0      -1423141.798        127219.145       6824216.392
10 0 59663  39480.000000  0      -1735053.591        450139.696       6738103.084
10 0 59663  39540.000000  0      -2036863.226        773858.561       6623539.520
10 0 59663  39600.000000  0      -2327304.209       1096924.523       6481006.770
10 0 59663  39660.000000  0      -2605169.791       1417877.851       6311102.968
10 0 59663  39720.000000  0      -2869317.969       1735256.805       6114541.018
10 0 59663  39780.000000  0      -3118676.197       2047604.226       5892145.843
10 0 59663  39840.000000  0      -3352245.834       2353474.211       5644851.192
10 0 59663  39900.000000  0      -3569106.226       2651438.808       5373695.932
10 0 59663  39960.000000  0      -3768418.443       2940094.679       5079819.897
10 0 59663  40020.000000  0      -3949428.634       3218069.715       4764459.337
10 0 59663  40080.000000  0      -4111471.038       3484029.623       4428941.956
10 0 59663  40140.000000  0      -4253970.572       3736684.399       4074681.500
10 0 59663  40200.000000  0      -4376445.012       3974794.676       3703171.991
10 0 59663  40260.000000  0      -4478506.761       4197177.914       3315981.515
10 0 59663  40320.000000  0      -4559864.101       4402714.376       2914745.675
10 0 59663  40380.000000  0      -4620322.002       4590352.906       2501160.730
10 0 59663  40440.000000  0      -4659782.483       4759116.394       2076976.384
10 0 59663  40500.000000  0      -4678244.497       4908106.899       1643988.321
10 0 59663  40560.000000  0      -4675803.370       5036510.435       1204030.519
10 0 59663  40620.000000  0      -4652649.781       5143601.382        758967.377
10 0 59663  40680.000000  0      -4609068.302       5228746.525        310685.683
10 0 59663  40740.000000  0      -4545435.465       5291408.720       -138913.580
10 0 59663  40800.000000  0      -4462217.394       5331150.123       -587923.546
10 0 59663  40860.000000  0      -4359966.900       5347634.864      -1034439.951
10 0 59663  40920.000000  0      -4239320.087       5340631.014      -1476569.434
10 0 59663  40980.000000  0      -4100992.672       5310012.280      -1912437.632
10 0 59663  41040.000000  0      -3945775.986       5255759.259      -2340197.368
10 0 59663  41100.000000  0      -3774532.566       5177960.021      -2758036.724
10 0 59663  41160.000000  0      -3588191.377       5076810.144      -3164186.864
10 0 59663  41220.000000  0      -3387742.779       4952612.230      -3556929.569
10 0 59663  41280.000000  0      -3174233.268       4805774.941      -3934604.521
10 0 59663  41340.000000  0      -2948760.003       4636811.546      -4295616.310
10 0 59663  41400.000000  0      -2712465.098       4446337.929      -4638441.090
10 0 59663  41460.000000  0      -2466529.839       4235070.219      -4961632.817
10 0 59663  41520.000000  0      -2212168.798       4003821.998      -5263829.241
10 0 59663  41580.000000  0      -1950623.819       3753500.998      -5543757.540
10 0 59663  41640.000000  0      -1683157.938       3485105.357      -5800239.520
10 0 59663  41700.000000  0      -1411049.274       3199719.462      -6032196.394
10 0 59663  41760.000000  0      -1135584.911       2898509.389      -6238653.107
10 0 59663  41820.000000  0       -858054.823       2582717.997      -6418742.158
10 0 59663  41880.000000  0       -579745.886       2253659.748      -6571706.978
10 0 59663  41940.000000  0       -301935.978       1912715.217      -6696904.920
10 0 59663  42000.000000  0        -25888.205       1561325.245      -6793809.747
10 0 59663  42060.000000  0        247154.717       1200984.894      -6862013.713
10 0 59663  42120.000000  0        515976.025        833237.168      -6901229.196
10 0 59663  42180.000000  0        779390.301        459666.471      -6911289.880
10 0 59663  42240.000000  0       1036248.656         81891.794      -6892151.399
10 0 59663  42300.000000  0       1285443.678       -298440.236      -6843891.480
10 0 59663  42360.000000  0       1525914.132       -679662.404      -6766709.630
10 0 59663  42420.000000  0       1756649.420      -1060094.093      -6660926.440
10 0 59663  42480.000000  0       1976693.824      -1438048.606      -6526982.435
10 0 59663  42540.000000  0       2185150.522      -1811840.559      -6365436.381
10 0 59663  42600.000000  0       2381185.232      -2179793.276      -6176963.191
10 0 59663  42660.000000  0       2564029.600      -2540246.294      -5962351.458
10 0 59663  42720.000000  0       2732984.343      -2891562.953      -5722500.499
10 0 59663  42780.000000  0       2887422.069      -3232137.983      -5458416.805
10 0 59663  42840.000000  0       3026789.702      -3560404.972      -5171209.966
10 0 59663  42900.000000  0       3150610.503      -3874843.636      -4862088.157
10 0 59663  42960.000000  0       3258485.732      -4173986.939      -4532353.277
10 0 59663  43020.000000  0       3350095.961      -4456428.085      -4183395.715
10 0 59663  43080.000000  0       3425202.046      -4720827.334      -3816688.689
10 0 59663  43140.000000  0       3483645.745      -4965918.599      -3433782.209
99
